{
"type": "FeatureCollection",
"name": "Ho_songdinh_48N",
"crs": { "type": "name", "properties": { "name": "urn:ogc:def:crs:EPSG::3857" } },
"features": [
{ "type": "Feature", "properties": { "NAME": "Hồ Sông Dinh 3", "KML_STYLE": "msn_ylw-pushpin", "tessellate": 1 }, "geometry": { "type": "Polygon", "coordinates": [ [ [ 11987053.803554326295853, 1208115.10795178450644 ], [ 11987047.425178617238998, 1208090.08133719721809 ], [ 11986527.815558610484004, 1207913.122913531260565 ], [ 11986041.897001842036843, 1207745.466159264091402 ], [ 11985986.360933449119329, 1207745.650228146696463 ], [ 11985990.787349941208959, 1207865.594705800758675 ], [ 11985985.784910403192043, 1207930.425477090291679 ], [ 11985866.964725121855736, 1207945.953202173346654 ], [ 11985859.52452526986599, 1207953.66253808978945 ], [ 11985823.912350354716182, 1208043.039584478130564 ], [ 11985761.310471443459392, 1208153.867627904284745 ], [ 11985583.142409669235349, 1208198.231468735961244 ], [ 11985572.122521955519915, 1208198.246680514654145 ], [ 11985564.77589768730104, 1208198.256824438693002 ], [ 11985408.426691580563784, 1208226.731857004575431 ], [ 11985319.922887858003378, 1208366.174166192300618 ], [ 11985311.122542172670364, 1208382.805604411289096 ], [ 11985259.573191042989492, 1208551.793953728862107 ], [ 11985248.204045318067074, 1208551.809937267564237 ], [ 11985135.220014754682779, 1208387.214535203995183 ], [ 11985117.764804843813181, 1208374.760904827853665 ], [ 11984965.70198623649776, 1208366.67162136733532 ], [ 11984880.708368638530374, 1208391.739320970606059 ], [ 11984863.25518174842, 1208412.637822421034798 ], [ 11984812.802532585337758, 1208518.241637656465173 ], [ 11984751.067816063761711, 1208617.165919701801613 ], [ 11984730.329005017876625, 1208630.213126909453422 ], [ 11984650.022035708650947, 1208802.261913305148482 ], [ 11984636.700669500976801, 1208901.540907668648288 ], [ 11984621.080814192071557, 1208901.563691256567836 ], [ 11984384.62773378752172, 1208865.622048296267167 ], [ 11984314.049759929999709, 1208892.921672601485625 ], [ 11984350.44720577262342, 1209110.311211423249915 ], [ 11984351.489398036152124, 1209129.184851699741557 ], [ 11984323.930146235972643, 1209306.665161065757275 ], [ 11984179.18721872381866, 1209449.647733472287655 ], [ 11984083.590123334899545, 1209500.883643830893561 ], [ 11983862.718201627954841, 1209486.025754575850442 ], [ 11983855.239328069612384, 1209482.241595976985991 ], [ 11983668.561210097745061, 1209467.374649353325367 ], [ 11983511.875971276313066, 1209605.378246911102906 ], [ 11983500.345567924901843, 1209613.136360051343217 ], [ 11983488.692992523312569, 1209624.781832419568673 ], [ 11983473.350002544000745, 1209632.569130145478994 ], [ 11983380.318167740479112, 1209801.892257047118619 ], [ 11983114.396305534988642, 1209762.581735684769228 ], [ 11983106.308041365817189, 1209770.522463317494839 ], [ 11982815.827704990282655, 1209968.256456145318225 ], [ 11982623.315459018573165, 1210209.8643353425432 ], [ 11982405.311148105189204, 1210329.863147174241021 ], [ 11982391.519979545846581, 1210347.149927443359047 ], [ 11982294.494036722928286, 1210464.99130842089653 ], [ 11982176.030908526852727, 1210580.436770268483087 ], [ 11982225.535128071904182, 1210643.209359450265765 ], [ 11982237.761492131277919, 1210643.188828188693151 ], [ 11982529.179919596761465, 1210535.295641372911632 ], [ 11982554.272889073938131, 1210526.377861108630896 ], [ 11982563.589424217119813, 1210513.069394620368257 ], [ 11982853.217051004990935, 1210415.882862591883168 ], [ 11982873.882575443014503, 1210407.12409913726151 ], [ 11982903.430158983916044, 1210385.311752955196425 ], [ 11983210.690894613042474, 1210315.627173706423491 ], [ 11983242.722831172868609, 1210311.274386207805946 ], [ 11983483.186048924922943, 1210246.696156810037792 ], [ 11983491.106091964989901, 1210246.683412974700332 ], [ 11983511.01289738714695, 1210242.393491695635021 ], [ 11983701.457016713917255, 1210203.886410382110626 ], [ 11983792.083508523181081, 1210241.942731858696789 ], [ 11983811.9273033849895, 1210224.906147595494986 ], [ 11984022.870400674641132, 1210023.777167271124199 ], [ 11984026.712048809975386, 1210019.650919952197 ], [ 11984030.386944079771638, 1210003.189864699961618 ], [ 11984045.647235251963139, 1209982.653387789148837 ], [ 11984137.535876285284758, 1209921.346760052256286 ], [ 11984141.224998295307159, 1209913.228425830136985 ], [ 11984152.356839476153255, 1209892.972806465812027 ], [ 11984262.719563942402601, 1209844.477780589601025 ], [ 11984270.406206270679832, 1209844.465639667818323 ], [ 11984415.343028018251061, 1209908.742761348839849 ], [ 11984515.94303423166275, 1209990.107223447179422 ], [ 11984530.861329074949026, 1209977.791530811693519 ], [ 11984645.825706161558628, 1209697.07711852574721 ], [ 11984644.874200567603111, 1209681.403724403120577 ], [ 11984705.95459902100265, 1209458.17308689863421 ], [ 11984804.147173954173923, 1209314.670761227607727 ], [ 11984808.514116058126092, 1209305.836972700897604 ], [ 11984868.137299176305532, 1209231.191795548424125 ], [ 11984884.674908557906747, 1209231.167349708965048 ], [ 11985016.378710180521011, 1209309.941740680253133 ], [ 11985124.532894190400839, 1209327.460541533539072 ], [ 11985141.192521911114454, 1209327.435999444685876 ], [ 11985170.346855169162154, 1209327.393069027457386 ], [ 11985195.336271204054356, 1209327.35628999536857 ], [ 11985277.710215607658029, 1209252.428830508841202 ], [ 11985381.685392331331968, 1209274.189808876952156 ], [ 11985412.010287681594491, 1209331.465067221550271 ], [ 11985412.508547132834792, 1209353.643928996054456 ], [ 11985421.781624026596546, 1209393.742289386224002 ], [ 11985356.717562546953559, 1209737.828751499997452 ], [ 11985241.588228829205036, 1209827.998878138139844 ], [ 11985241.675965085625648, 1209837.541927688289434 ], [ 11985241.807799899950624, 1209851.88151066377759 ], [ 11985247.890941005200148, 1210036.14624125813134 ], [ 11985247.984484955668449, 1210045.98216445511207 ], [ 11985248.171972358599305, 1210065.695926621789113 ], [ 11985252.813178660348058, 1210090.410394278354943 ], [ 11985257.824709186330438, 1210150.094347140286118 ], [ 11985258.078510254621506, 1210175.116535204695538 ], [ 11985215.278484975919127, 1210394.126306597609073 ], [ 11985215.38692613504827, 1210409.657026277622208 ], [ 11985221.585345009341836, 1210641.391020413022488 ], [ 11985359.985355246812105, 1210700.304683088324964 ], [ 11985359.804343832656741, 1210689.520319012226537 ], [ 11985358.993108954280615, 1210641.187783962581307 ], [ 11985369.177247187122703, 1210440.593471863307059 ], [ 11985474.108828030526638, 1210482.203341005370021 ], [ 11985478.904189631342888, 1210492.675560465315357 ], [ 11985578.845439024269581, 1210640.865224579581991 ], [ 11985734.56642984226346, 1210748.486949922749773 ], [ 11985733.187631538137794, 1210715.96614276478067 ], [ 11985670.996894659474492, 1210419.360903521766886 ], [ 11985593.950889615342021, 1210144.607037445297465 ], [ 11985588.347554177045822, 1210109.75819163909182 ], [ 11985613.725391760468483, 1209836.996148155769333 ], [ 11985944.249261111021042, 1209865.225892385235056 ], [ 11985943.95975281111896, 1209860.432998126372695 ], [ 11985947.061474828049541, 1209629.592417642008513 ], [ 11986136.993949163705111, 1209661.817744217580184 ], [ 11986226.884607542306185, 1209821.79967247066088 ], [ 11986244.171630475670099, 1209821.774902667617425 ], [ 11986383.697752309963107, 1209788.30176468915306 ], [ 11986409.565574068576097, 1209788.26485360856168 ], [ 11986494.358173592016101, 1209859.644399797311053 ], [ 11986495.322390737012029, 1209869.23310606693849 ], [ 11986522.693828908726573, 1210053.989892340730876 ], [ 11986520.28975198045373, 1210073.735555192455649 ], [ 11986597.162572612985969, 1210218.453420060919598 ], [ 11986714.101001162081957, 1210113.115995986619964 ], [ 11986712.395905772224069, 1210098.221910564927384 ], [ 11986710.128106266260147, 1210078.412452587392181 ], [ 11986614.194378638640046, 1209689.117007644381374 ], [ 11986611.61327300593257, 1209665.794223124859855 ], [ 11986610.068885503336787, 1209651.839093383401632 ], [ 11986614.47943190485239, 1209614.753832133486867 ], [ 11986591.686333479359746, 1209409.953941880492494 ], [ 11986400.581607095897198, 1209299.102794903097674 ], [ 11986399.291286936029792, 1209285.894653846044093 ], [ 11986412.839607287198305, 1208968.22581655299291 ], [ 11986410.302625639364123, 1208943.145986944437027 ], [ 11986409.780699886381626, 1208819.18672966142185 ], [ 11986420.953174851834774, 1208810.991810337873176 ], [ 11986639.267201613634825, 1208729.464671520749107 ], [ 11986840.218501629307866, 1208773.710002843989059 ], [ 11986954.335149375721812, 1208789.818347967695445 ], [ 11986978.74224047921598, 1208618.979844445828348 ], [ 11987111.43370065651834, 1208570.512393736746162 ], [ 11987111.08231701143086, 1208561.519157440867275 ], [ 11987121.857600716874003, 1208552.531183717772365 ], [ 11987205.968464011326432, 1208510.799523456022143 ], [ 11987208.584724670276046, 1208507.839035681448877 ], [ 11987278.399568105116487, 1208472.428782296832651 ], [ 11987268.419743601232767, 1208396.941536366706714 ], [ 11987273.534084787592292, 1208391.184846746735275 ], [ 11987215.952411806210876, 1208334.201070470735431 ], [ 11987103.470330972224474, 1208297.685954291140661 ], [ 11987017.640162752941251, 1208219.958491455996409 ], [ 11987029.22856518253684, 1208162.548295259242877 ], [ 11987034.44457221403718, 1208159.829093679087237 ], [ 11987053.803554326295853, 1208115.10795178450644 ] ] ] } }
]
}
