{
"type": "FeatureCollection",
"name": "SongDinh_48N",
"crs": { "type": "name", "properties": { "name": "urn:ogc:def:crs:EPSG::3857" } },
"features": [
{ "type": "Feature", "properties": { "NAME": "Đường thẳng 3", "KML_STYLE": "line-0288D1-3713-nodesc", "tessellate": 0, "leng": 12.3096 }, "geometry": { "type": "LineString", "coordinates": [ [ 11986989.568508889526129, 1208059.396947841625661 ], [ 11987046.898046605288982, 1207863.531339160399511 ], [ 11987023.008883897215128, 1207751.263819309184328 ], [ 11986937.014577310532331, 1207612.717574461363256 ], [ 11986817.591027665883303, 1207521.947765168501064 ], [ 11986688.961356138810515, 1207407.516956720501184 ], [ 11986599.382561957463622, 1207358.54005348100327 ], [ 11986542.064156183972955, 1207290.468847381649539 ], [ 11986526.535087225958705, 1207202.090935205575079 ], [ 11986534.89518097601831, 1207125.645755740813911 ], [ 11986569.749313518404961, 1206999.95239409734495 ], [ 11986548.253519859164953, 1206897.240456217434257 ], [ 11986519.588750995695591, 1206808.863563056802377 ], [ 11986526.746594246476889, 1206658.377470997627825 ], [ 11986564.973707355558872, 1206507.892042756546289 ], [ 11986629.461088325828314, 1206402.790603070985526 ], [ 11986777.560538778081536, 1206340.693085186881945 ], [ 11986939.986807683482766, 1206288.136916555697098 ], [ 11987018.812139058485627, 1206202.141238664044067 ], [ 11987046.285789364948869, 1206131.681375782005489 ], [ 11987047.476907912641764, 1206049.266863877885044 ], [ 11987043.402614550665021, 1205966.410621327813715 ], [ 11987049.369339251890779, 1205907.894654361298308 ], [ 11987074.449620509520173, 1205851.758400772698224 ], [ 11987121.02569542452693, 1205830.262568724807352 ], [ 11987220.155701907351613, 1205815.928244383772835 ], [ 11987368.25515235774219, 1205799.214316486846656 ], [ 11987441.113759031519294, 1205772.936638934770599 ], [ 11987474.554134041070938, 1205691.724125575041398 ], [ 11987498.443296747282147, 1205599.75829791999422 ], [ 11987527.842774242162704, 1205436.121833380078897 ], [ 11987552.923055496066809, 1205258.76395267015323 ], [ 11987566.069887345656753, 1205103.502909491537139 ], [ 11987570.84549349360168, 1205028.263539455831051 ], [ 11987578.01446869596839, 1204932.718843336449936 ], [ 11987600.701380902901292, 1204852.698099723551422 ], [ 11987667.582130923867226, 1204767.895805656677112 ], [ 11987701.590235337615013, 1204732.304739874321967 ], [ 11987720.703791888430715, 1204652.284465641016141 ], [ 11987729.06388564221561, 1204547.177406296133995 ], [ 11987752.953048344701529, 1204506.578248173231259 ], [ 11987780.42669865489006, 1204461.186112307244912 ], [ 11987822.2271674182266, 1204408.644167110323906 ], [ 11987878.354454634711146, 1204351.309292124817148 ], [ 11987926.13278004899621, 1204322.653221681481227 ], [ 11987973.899973515421152, 1204296.376679982524365 ], [ 11987989.429042469710112, 1204248.605321731651202 ], [ 11987983.462317764759064, 1204204.414608598221093 ], [ 11987945.23520465195179, 1204162.603447995847091 ], [ 11987864.027636177837849, 1204110.061961783561856 ], [ 11987801.922492302954197, 1204062.279533007415012 ], [ 11987761.313142089173198, 1203997.795455303275958 ], [ 11987724.288279473781586, 1203934.489908154821023 ], [ 11987709.961461016908288, 1203879.557965808780864 ], [ 11987709.961461013182998, 1203800.72942303144373 ], [ 11987724.28827946819365, 1203738.625304505228996 ], [ 11987756.537535926327109, 1203652.624713581753895 ], [ 11987779.424823217093945, 1203594.815215250477195 ], [ 11987795.021506607532501, 1203560.673549290280789 ], [ 11987801.521742122247815, 1203546.444308692356572 ], [ 11987818.831922927871346, 1203510.616569585399702 ], [ 11987838.535472782328725, 1203475.378064566291869 ], [ 11987883.330435847863555, 1203471.197035347810015 ], [ 11987949.020067321136594, 1203492.102186530129984 ], [ 11988051.723429456353188, 1203503.444227833999321 ], [ 11988117.413060925900936, 1203501.053447582991794 ], [ 11988204.008492754772305, 1203474.188340743770823 ], [ 11988254.169055268168449, 1203449.102173990802839 ], [ 11988365.243643103167415, 1203361.92392184981145 ], [ 11988421.370930321514606, 1203298.619551780866459 ], [ 11988497.814024595543742, 1203230.545106631238014 ], [ 11988539.614493355154991, 1203194.117176063824445 ], [ 11988592.635966785252094, 1203169.348471552599221 ], [ 11988675.880681937560439, 1203057.674242431065068 ], [ 11988742.761431954801083, 1202877.326117487624288 ], [ 11988823.969000428915024, 1202751.920316818635911 ], [ 11988892.052000949159265, 1202653.991260218666866 ], [ 11989000.733219729736447, 1202527.385256618494168 ], [ 11989099.86322620883584, 1202456.921638415660709 ], [ 11989226.46688299626112, 1202374.515986244892702 ], [ 11989293.347633013501763, 1202318.385534596862271 ], [ 11989376.948570540174842, 1202262.243844675598666 ], [ 11989642.890833849087358, 1202026.925621664151549 ], [ 11989734.851865127682686, 1201957.652704505482689 ], [ 11989796.957008995115757, 1201928.987308725249022 ], [ 11989957.001040790230036, 1201872.85758742922917 ], [ 11990016.723947560414672, 1201825.078282702947035 ], [ 11990019.106184659525752, 1201759.397426473442465 ], [ 11989991.63253434933722, 1201679.372775654541329 ], [ 11989988.05917869694531, 1201648.316961945733055 ], [ 11990078.829091418534517, 1201581.435456561855972 ], [ 11990074.042353319004178, 1201470.366899167420343 ], [ 11990093.924014359712601, 1201439.968416637741029 ], [ 11990131.550002221018076, 1201431.618185943458229 ], [ 11990165.591502478346229, 1201432.513258064398542 ], [ 11990291.616297915577888, 1201405.627114556962624 ], [ 11990357.895922683179379, 1201351.288390822708607 ], [ 11990428.361160302534699, 1201295.148286156356335 ], [ 11990480.169251278042793, 1201197.461324319941923 ], [ 11990505.850657785311341, 1201167.301012642681599 ], [ 11990548.84224509447813, 1201140.42640717071481 ], [ 11990572.731407806277275, 1201121.913305887253955 ], [ 11990658.425151754170656, 1201088.773293359903619 ], [ 11990734.267120774835348, 1201066.079484467627481 ], [ 11990798.164508441463113, 1201045.175814588088542 ], [ 11990866.837502259761095, 1201026.662764749722555 ], [ 11990921.183677626773715, 1201006.960086839040741 ], [ 11990977.466812130063772, 1200978.057559115579352 ], [ 11991022.261775190010667, 1200936.261669343803078 ], [ 11991027.037381341680884, 1200902.215448198374361 ], [ 11991016.885043788701296, 1200827.574466749792919 ], [ 11991024.054018987342715, 1200783.977320237783715 ], [ 11991036.588593639433384, 1200706.946011092048138 ], [ 11991050.325418788939714, 1200652.007917394861579 ], [ 11991088.541399950161576, 1200601.250590038485825 ], [ 11991141.696456765756011, 1200573.186805365607142 ], [ 11991200.217113031074405, 1200558.854683580808342 ], [ 11991278.441319154575467, 1200543.321616062894464 ], [ 11991352.49104437418282, 1200521.829119225498289 ], [ 11991384.740300830453634, 1200497.946065266150981 ], [ 11991447.435437997803092, 1200469.281890596728772 ], [ 11991520.294044667854905, 1200451.358296318212524 ], [ 11991575.230213336646557, 1200428.664909419836476 ], [ 11991617.030682096257806, 1200437.026225459761918 ], [ 11991654.656669957563281, 1200475.841792481718585 ], [ 11991691.681532567366958, 1200502.715876890812069 ], [ 11991734.673119883984327, 1200535.560749800410122 ], [ 11991792.002657599747181, 1200571.39670602302067 ], [ 11991860.085658119991422, 1200620.36388728232123 ], [ 11991895.908270230516791, 1200659.768809989560395 ], [ 11991934.124251393601298, 1200681.861871578963473 ], [ 11991984.885939156636596, 1200673.511825598310679 ], [ 11992030.270895516499877, 1200648.427710568532348 ], [ 11992061.919026723131537, 1200616.183206643909216 ], [ 11992078.639214228838682, 1200564.224979878868908 ], [ 11992094.168283181264997, 1200505.706922991434112 ], [ 11992110.287345433607697, 1200463.900279431371018 ], [ 11992141.946608589962125, 1200407.772957909386605 ], [ 11992172.392489297315478, 1200363.575872540008277 ], [ 11992201.658383404836059, 1200334.322667666943744 ], [ 11992290.546996733173728, 1200191.206650933949277 ], [ 11992321.605134636163712, 1200099.232945929979905 ], [ 11992356.236628197133541, 1200016.832963666412979 ], [ 11992399.228215504437685, 1199916.509864613646641 ], [ 11992460.142240818589926, 1199835.28858919092454 ], [ 11992522.247384684160352, 1199776.771776096196845 ], [ 11992693.634872576221824, 1199708.692999495193362 ], [ 11992794.557122852653265, 1199666.298196387477219 ], [ 11992859.64562906883657, 1199636.43379678321071 ], [ 11992924.734135285019875, 1199600.610146880382672 ], [ 11992983.254791550338268, 1199565.96479302062653 ], [ 11993126.868066508322954, 1199418.909363846527413 ], [ 11993241.516009984537959, 1199320.96717224502936 ], [ 11993337.061528855934739, 1199211.095512523315847 ], [ 11993431.97252663038671, 1199090.200839458033442 ], [ 11993528.720296002924442, 1198992.860034575918689 ], [ 11993745.604059740900993, 1198783.711922728456557 ], [ 11993866.229859868064523, 1198683.392428460530937 ], [ 11993947.448560286313295, 1198628.446245836792514 ], [ 11994093.154641671106219, 1198592.623647934524342 ], [ 11994266.33437336049974, 1198549.629782335134223 ], [ 11994420.400548497214913, 1198518.57680247630924 ], [ 11994529.081767272204161, 1198463.630883571691811 ], [ 11994603.131492486223578, 1198340.620318269589916 ], [ 11994758.399918120354414, 1198249.852443699724972 ], [ 11994868.272255441173911, 1198178.185417142929509 ], [ 11994982.931330868974328, 1198125.641776891192421 ], [ 11995119.086199944838881, 1198053.975009468616918 ], [ 11995200.293768415227532, 1197987.100511357886717 ], [ 11995283.905837878584862, 1197874.831402692710981 ], [ 11995403.329387502744794, 1197757.78190119471401 ], [ 11995513.212856773287058, 1197652.684658127836883 ], [ 11995675.20497964322567, 1197533.732684968737885 ], [ 11995844.800223724916577, 1197409.524606860941276 ], [ 11995973.786117602139711, 1197359.361165165202692 ], [ 11996157.719312086701393, 1197263.815191684523597 ], [ 11996226.982299203053117, 1197177.830839787609875 ], [ 11996210.262111695483327, 1197077.504705791827291 ], [ 11996174.439499579370022, 1196907.904812359949574 ], [ 11996124.278937064111233, 1196716.815640066517517 ], [ 11996123.076686561107635, 1196648.142520102206618 ], [ 11996117.109961859881878, 1196613.511472183046862 ], [ 11996033.375440951436758, 1196533.544131660601124 ], [ 11995963.500196631997824, 1196377.087814272381365 ], [ 11995927.076459271833301, 1196323.346122721908614 ], [ 11995904.389547064900398, 1196278.553891674382612 ], [ 11995876.871368961408734, 1196147.474078641273081 ], [ 11995934.200906669721007, 1196071.030909431166947 ], [ 11995997.497169082984328, 1196019.67995469388552 ], [ 11996058.411194395273924, 1195975.488514957251027 ], [ 11996133.652038158848882, 1195915.766156962607056 ], [ 11996303.247282238677144, 1195773.642768094548956 ], [ 11996468.1337118614465, 1195520.425338920904323 ], [ 11996568.454836877062917, 1195350.833120796596631 ], [ 11996685.496149398386478, 1195236.182412477210164 ], [ 11996773.872693061828613, 1195143.021205086028203 ], [ 11996859.866999626159668, 1195037.920622169505805 ], [ 11996914.814300233498216, 1194877.880169527372345 ], [ 11996927.994527926668525, 1194698.537873145658523 ], [ 11996873.047227310016751, 1194497.889024279545993 ], [ 11996868.271621152758598, 1194345.010179863544181 ], [ 11996951.872558666393161, 1194208.862941788043827 ], [ 11997107.140984294936061, 1194170.643487660912797 ], [ 11997314.952209535986185, 1194177.802552299341187 ], [ 11997422.442309757694602, 1194208.862941775238141 ], [ 11997615.926716543734074, 1194213.631880781846121 ], [ 11997756.857191767543554, 1194170.643487642984837 ], [ 11997799.848779072985053, 1194077.485161732649431 ], [ 11997761.632797909900546, 1193826.670307691441849 ], [ 11997667.278397584334016, 1193562.72878115111962 ], [ 11997642.198116322979331, 1193350.136174016399309 ], [ 11997631.444653507322073, 1192923.765532642835751 ], [ 11997605.173253692686558, 1192589.353544510435313 ], [ 11997571.732878670096397, 1192092.504620637046173 ] ] } }
]
}
